stk.v.11.0

# WrittenBy    STK_v11.2.0

BEGIN Ephemeris

NumberOfEphemerisPoints 577

ScenarioEpoch            30 Jul 2017 00:00:00.000000

# Epoch in JDate format: 2457964.50000000000000
# Epoch in YYDDD format:   17211.00000000000000


InterpolationMethod     Lagrange

InterpolationSamplesM1      5

CentralBody             Earth

CoordinateSystem        ICRF 

# Time of first point: 30 Jul 2017 00:00:00.000000000 UTCG = 2457964.50000000000000 JDate = 17211.00000000000000 YYDDD

EphemerisTimePosVel

3.39000000000000e+05 -4.20915256743461e+07 2.46442057538034e+06 6.82673779101476e+04 -1.79864157665097e+02 -3.06951299048018e+03 2.17792828241796e-01
3.39600000000000e+05 -4.21591247490929e+07 6.20982867191734e+05 6.83185049352639e+04 -4.54354503247149e+01 -3.07443600637019e+03 -8.96784537402981e-05
3.40200000000000e+05 -4.21460296925558e+07 -1.22364343567010e+06 6.82389367081891e+04 8.90793597113489e+01 -3.07347442494017e+03 -2.17881392552781e-01
3.40800000000000e+05 -4.20522660913189e+07 -3.06592766516638e+06 6.80288784368046e+04 2.23422789273171e+02 -3.06663016306688e+03 -4.35165613678700e-01
3.41400000000000e+05 -4.18780139425978e+07 -4.90234368273625e+06 6.76887850107982e+04 3.57337690038153e+02 -3.05391639930274e+03 -6.51526785671815e-01
3.42000000000000e+05 -4.16236073056405e+07 -6.72937662877862e+06 6.72193600297915e+04 4.90567740856926e+02 -3.03535754805023e+03 -8.66551291933675e-01
3.42600000000000e+05 -4.12895336580542e+07 -8.54352965157215e+06 6.66215543552124e+04 6.22857938543858e+02 -3.01098921220764e+03 -1.07982824683969e+00
3.43200000000000e+05 -4.08764329584650e+07 -1.03413306004360e+07 6.58965641891873e+04 7.53955086023106e+02 -2.98085811439221e+03 -1.29095028143515e+00
3.43800000000000e+05 -4.03850964172876e+07 -1.21193386714544e+07 6.50458286842452e+04 8.83608276978137e+02 -2.94502200687345e+03 -1.49951432204316e+00
3.44400000000000e+05 -3.98164649779994e+07 -1.38741509928141e+07 6.40710270886795e+04 1.01156937606010e+03 -2.90354956039444e+03 -1.70512236026289e+00
3.45000000000000e+05 -3.91716275118566e+07 -1.56024091371636e+07 6.29740754332005e+04 1.13759349373673e+03 -2.85652023209872e+03 -1.90738221290064e+00
3.45600000000000e+05 -3.84518187296378e+07 -1.73008055483121e+07 6.17571227656768e+04 1.26143945485758e+03 -2.80402411282746e+03 -2.10590827034019e+00


END Ephemeris
